[    {
		"AddressID": 1,
		"Street": "P.O. Box 964, 8126 Varius. Road",
		"City": "San Francisco",
		"Zip": "2663",
		"Region": "H"
	},
	{
		"AddressID": 2,
		"Street": "6774 Laoreet Avenue",
		"City": "Wichita",
		"Zip": "451639",
		"Region": "KS"
	},
	{
		"AddressID": 3,
		"Street": "9741 Proin Rd.",
		"City": "Vienna",
		"Zip": "10808",
		"Region": "Vienna"
	},
	{
		"AddressID": 4,
		"Street": "9740 Sed St.",
		"City": "Hamburg",
		"Zip": "3707",
		"Region": "HH"
	},
	{
		"AddressID": 5,
		"Street": "P.O. Box 367, 3400 Porttitor St.",
		"City": "Bournemouth",
		"Zip": "5308BX",
		"Region": "Hampshire"
	},
	{
		"AddressID": 6,
		"Street": "949-1543 Ornare. Av.",
		"City": "San Cristóbal de la Laguna",
		"Zip": "17553",
		"Region": "CN"
	},
	{
		"AddressID": 7,
		"Street": "653-8376 Molestie. St.",
		"City": "Monte San Giovanni in Sabina",
		"Zip": "08006",
		"Region": "LAZ"
	},
	{
		"AddressID": 8,
		"Street": "P.O. Box 191, 5105 Eros Rd.",
		"City": "Amstelveen",
		"Zip": "429516",
		"Region": "Noord Holland"
	},
	{
		"AddressID": 9,
		"Street": "Ap #598-9963 Nullam Rd.",
		"City": "Piracicaba",
		"Zip": "2706",
		"Region": "São Paulo"
	},
	{
		"AddressID": 10,
		"Street": "535-1861 Cursus. Rd.",
		"City": "Glendale",
		"Zip": "5029",
		"Region": "AZ"
	},
	{
		"AddressID": 11,
		"Street": "2615 Tempus St.",
		"City": "Albury",
		"Zip": "1492",
		"Region": "NSW"
	},
	{
		"AddressID": 12,
		"Street": "Ap #146-9914 Cras Avenue",
		"City": "Mogi das Cruzes",
		"Zip": "726210",
		"Region": "SP"
	},
	{
		"AddressID": 13,
		"Street": "4491 Est Street",
		"City": "Salvirola",
		"Zip": "04803",
		"Region": "LOM"
	},
	{
		"AddressID": 14,
		"Street": "794-9359 Eu, St.",
		"City": "Alacant",
		"Zip": "156783",
		"Region": "CV"
	},
	{
		"AddressID": 15,
		"Street": "Ap #215-7699 Adipiscing Av.",
		"City": "Parla",
		"Zip": "1110",
		"Region": "Madrid"
	},
	{
		"AddressID": 16,
		"Street": "7302 Pellentesque St.",
		"City": "Lauder",
		"Zip": "85850-809",
		"Region": "BE"
	},
	{
		"AddressID": 17,
		"Street": "3726 Tempus St.",
		"City": "Barra do Corda",
		"Zip": "80-077",
		"Region": "MA"
	},
	{
		"AddressID": 18,
		"Street": "314-9766 Ut Av.",
		"City": "Chiguayante",
		"Zip": "135479",
		"Region": "Biobío"
	},
	{
		"AddressID": 19,
		"Street": "Ap #213-4981 Ac St.",
		"City": "Lauterach",
		"Zip": "21315",
		"Region": "Vorarlberg"
	},
	{
		"AddressID": 20,
		"Street": "P.O. Box 856, 2019 Cras St.",
		"City": "Mielec",
		"Zip": "HR5G 0WX",
		"Region": "Podkarpackie"
	},
	{
		"AddressID": 21,
		"Street": "P.O. Box 870, 816 Orci Road",
		"City": "Calvello",
		"Zip": "15731",
		"Region": "BAS"
	},
	{
		"AddressID": 22,
		"Street": "333 In Rd.",
		"City": "Märsta",
		"Zip": "06589",
		"Region": "Stockholms län"
	},
	{
		"AddressID": 23,
		"Street": "P.O. Box 817, 8278 Euismod Road",
		"City": "Shaki",
		"Zip": "4245",
		"Region": "OY"
	},
	{
		"AddressID": 24,
		"Street": "6303 Netus Road",
		"City": "Tomaszów Mazowiecki",
		"Zip": "21419",
		"Region": "łódzkie"
	},
	{
		"AddressID": 25,
		"Street": "470-8419 Lectus Ave",
		"City": "Huntley",
		"Zip": "387695",
		"Region": "Aberdeenshire"
	},
	{
		"AddressID": 26,
		"Street": "9016 Eget Rd.",
		"City": "Dublin",
		"Zip": "56-540",
		"Region": "Leinster"
	},
	{
		"AddressID": 27,
		"Street": "P.O. Box 491, 470 Vitae St.",
		"City": "Mustafakemalpaşa",
		"Zip": "Z8 9LT",
		"Region": "Bursa"
	},
	{
		"AddressID": 28,
		"Street": "Ap #945-2033 Pellentesque. Avenue",
		"City": "Trollhättan",
		"Zip": "87748",
		"Region": "Västra Götalands län"
	},
	{
		"AddressID": 29,
		"Street": "P.O. Box 161, 9337 Aliquam, Rd.",
		"City": "Kano",
		"Zip": "519485",
		"Region": "Kano"
	},
	{
		"AddressID": 30,
		"Street": "574 Diam St.",
		"City": "Sokoto",
		"Zip": "17753",
		"Region": "SO"
	},
	{
		"AddressID": 31,
		"Street": "6569 Porttitor St.",
		"City": "Sprimont",
		"Zip": "51214",
		"Region": "Luik"
	},
	{
		"AddressID": 32,
		"Street": "P.O. Box 422, 2103 Praesent St.",
		"City": "Vienna",
		"Zip": "6254",
		"Region": "Vienna"
	},
	{
		"AddressID": 33,
		"Street": "8375 Tristique St.",
		"City": "Bathurst",
		"Zip": "71-338",
		"Region": "New South Wales"
	},
	{
		"AddressID": 34,
		"Street": "9055 Ullamcorper Road",
		"City": "Saalfelden am Steinernen Meer",
		"Zip": "4158",
		"Region": "Salzburg"
	},
	{
		"AddressID": 35,
		"Street": "P.O. Box 294, 6328 Vulputate, Road",
		"City": "Rutland",
		"Zip": "61009",
		"Region": "VT"
	},
	{
		"AddressID": 36,
		"Street": "314-9003 Lacus Ave",
		"City": "Dandenong",
		"Zip": "1462EN",
		"Region": "Victoria"
	},
	{
		"AddressID": 37,
		"Street": "Ap #871-1436 Porttitor Av.",
		"City": "Redcliffe",
		"Zip": "SR3 0RG",
		"Region": "QLD"
	},
	{
		"AddressID": 38,
		"Street": "642-6652 Risus Ave",
		"City": "Price",
		"Zip": "61-300",
		"Region": "Quebec"
	},
	{
		"AddressID": 39,
		"Street": "P.O. Box 726, 7486 Eros Rd.",
		"City": "Kraków",
		"Zip": "185142",
		"Region": "Małopolskie"
	},
	{
		"AddressID": 40,
		"Street": "7406 Amet Rd.",
		"City": "King Township",
		"Zip": "50253",
		"Region": "ON"
	},
	{
		"AddressID": 41,
		"Street": "7890 Morbi Av.",
		"City": "Ville de Maniwaki",
		"Zip": "D3S 5OG",
		"Region": "QC"
	},
	{
		"AddressID": 42,
		"Street": "188-3449 Et, Road",
		"City": "San Rafael",
		"Zip": "09-583",
		"Region": "C"
	},
	{
		"AddressID": 43,
		"Street": "3356 Lobortis Rd.",
		"City": "Nuragus",
		"Zip": "6486",
		"Region": "SAR"
	},
	{
		"AddressID": 44,
		"Street": "246-2206 Dolor Ave",
		"City": "San Miguel",
		"Zip": "14205",
		"Region": "San José"
	},
	{
		"AddressID": 45,
		"Street": "6962 Eu St.",
		"City": "Olcenengo",
		"Zip": "3324NC",
		"Region": "PIE"
	},
	{
		"AddressID": 46,
		"Street": "Ap #577-7611 Consectetuer, Street",
		"City": "Carmen",
		"Zip": "7629",
		"Region": "C"
	},
	{
		"AddressID": 47,
		"Street": "438-8076 Sodales Street",
		"City": "Fredericton",
		"Zip": "E9X 2Y5",
		"Region": "NB"
	},
	{
		"AddressID": 48,
		"Street": "Ap #626-4955 Euismod Road",
		"City": "Nocera Umbra",
		"Zip": "70699",
		"Region": "UMB"
	},
	{
		"AddressID": 49,
		"Street": "3900 Id Road",
		"City": "Halkirk",
		"Zip": "EX9 0OF",
		"Region": "Caithness"
	},
	{
		"AddressID": 50,
		"Street": "P.O. Box 703, 3853 Penatibus Rd.",
		"City": "Berlin",
		"Zip": "5392",
		"Region": "BE"
	},
	{
		"AddressID": 51,
		"Street": "709-1052 Lorem. St.",
		"City": "Grandrieu",
		"Zip": "33926",
		"Region": "Henegouwen"
	},
	{
		"AddressID": 52,
		"Street": "Ap #220-1360 Cum Avenue",
		"City": "Salt Lake City",
		"Zip": "8086",
		"Region": "UT"
	},
	{
		"AddressID": 53,
		"Street": "3098 Ut Rd.",
		"City": "Vienna",
		"Zip": "42-431",
		"Region": "Wie"
	},
	{
		"AddressID": 54,
		"Street": "P.O. Box 134, 5116 Lacus. Ave",
		"City": "Ribeirão Preto",
		"Zip": "33026",
		"Region": "São Paulo"
	},
	{
		"AddressID": 55,
		"Street": "201-6332 Donec Rd.",
		"City": "Bremen",
		"Zip": "1958TS",
		"Region": "Bremen"
	},
	{
		"AddressID": 56,
		"Street": "Ap #196-1295 Mus. Rd.",
		"City": "Middelburg",
		"Zip": "53566",
		"Region": "Zeeland"
	},
	{
		"AddressID": 57,
		"Street": "6593 Vel, Road",
		"City": "Caucaia",
		"Zip": "Y3M 1A6",
		"Region": "Ceará"
	},
	{
		"AddressID": 58,
		"Street": "Ap #868-3669 Sed Rd.",
		"City": "Oxford County",
		"Zip": "RK5 0MG",
		"Region": "ON"
	},
	{
		"AddressID": 59,
		"Street": "P.O. Box 151, 7080 Orci. Avenue",
		"City": "L'Hospitalet de Llobregat",
		"Zip": "B0J 0E9",
		"Region": "CA"
	},
	{
		"AddressID": 60,
		"Street": "Ap #760-2803 Mauris Rd.",
		"City": "Douai",
		"Zip": "6424",
		"Region": "NO"
	},
	{
		"AddressID": 61,
		"Street": "532-5234 Adipiscing Avenue",
		"City": "Diadema",
		"Zip": "536738",
		"Region": "São Paulo"
	},
	{
		"AddressID": 62,
		"Street": "363-997 Lectus Ave",
		"City": "Seydişehir",
		"Zip": "40914",
		"Region": "Kon"
	},
	{
		"AddressID": 63,
		"Street": "P.O. Box 453, 8245 Vulputate, Rd.",
		"City": "Sadiqabad",
		"Zip": "30506",
		"Region": "Punjab"
	},
	{
		"AddressID": 64,
		"Street": "Ap #662-5971 Ultrices St.",
		"City": "Terneuzen",
		"Zip": "6752",
		"Region": "Zeeland"
	},
	{
		"AddressID": 65,
		"Street": "Ap #122-4989 Proin Avenue",
		"City": "Çarşamba",
		"Zip": "21912",
		"Region": "Sam"
	},
	{
		"AddressID": 66,
		"Street": "106-449 Erat. Street",
		"City": "Kapolei",
		"Zip": "147597",
		"Region": "HI"
	},
	{
		"AddressID": 67,
		"Street": "Ap #921-4470 Nec Ave",
		"City": "Goiânia",
		"Zip": "85838",
		"Region": "GO"
	},
	{
		"AddressID": 68,
		"Street": "Ap #164-7627 Eros. St.",
		"City": "Newton Stewart",
		"Zip": "14751",
		"Region": "Wigtownshire"
	},
	{
		"AddressID": 69,
		"Street": "1690 Vel, Street",
		"City": "Toronto",
		"Zip": "88123",
		"Region": "ON"
	},
	{
		"AddressID": 70,
		"Street": "242-4872 A, Rd.",
		"City": "Leganés",
		"Zip": "66179",
		"Region": "Madrid"
	},
	{
		"AddressID": 71,
		"Street": "Ap #291-887 Sit Av.",
		"City": "Niterói",
		"Zip": "173445",
		"Region": "RJ"
	},
	{
		"AddressID": 72,
		"Street": "P.O. Box 607, 2666 Magna Av.",
		"City": "Ceranesi",
		"Zip": "22375",
		"Region": "Liguria"
	},
	{
		"AddressID": 73,
		"Street": "P.O. Box 439, 283 Adipiscing Av.",
		"City": "Bregenz",
		"Zip": "5791",
		"Region": "Vorarlberg"
	},
	{
		"AddressID": 74,
		"Street": "P.O. Box 571, 2541 Morbi Av.",
		"City": "Leamington",
		"Zip": "58709",
		"Region": "ON"
	},
	{
		"AddressID": 75,
		"Street": "P.O. Box 690, 7456 Maecenas Avenue",
		"City": "Hapur",
		"Zip": "18891",
		"Region": "Uttar Pradesh"
	},
	{
		"AddressID": 76,
		"Street": "Ap #552-9553 Imperdiet Av.",
		"City": "Vienna",
		"Zip": "0401GG",
		"Region": "Wie"
	},
	{
		"AddressID": 77,
		"Street": "P.O. Box 842, 7508 Lectus Avenue",
		"City": "Sens",
		"Zip": "19453",
		"Region": "BO"
	},
	{
		"AddressID": 78,
		"Street": "Ap #843-651 Lacus, Av.",
		"City": "Baton Rouge",
		"Zip": "3095",
		"Region": "Louisiana"
	},
	{
		"AddressID": 79,
		"Street": "Ap #185-9181 Quisque St.",
		"City": "Ełk",
		"Zip": "52-804",
		"Region": "WM"
	},
	{
		"AddressID": 80,
		"Street": "223-9354 In, Rd.",
		"City": "Stockport",
		"Zip": "64305",
		"Region": "CH"
	},
	{
		"AddressID": 81,
		"Street": "965-5007 Semper Av.",
		"City": "Santa Coloma de Gramenet",
		"Zip": "569766",
		"Region": "Catalunya"
	},
	{
		"AddressID": 82,
		"Street": "P.O. Box 516, 5646 Facilisis, Rd.",
		"City": "Tczew",
		"Zip": "750275",
		"Region": "Pomorskie"
	},
	{
		"AddressID": 83,
		"Street": "Ap #593-9907 Sit St.",
		"City": "Granada",
		"Zip": "44483",
		"Region": "AN"
	},
	{
		"AddressID": 84,
		"Street": "325-1055 Ac Av.",
		"City": "Cessnock",
		"Zip": "81479",
		"Region": "New South Wales"
	},
	{
		"AddressID": 85,
		"Street": "766-1013 Ornare, Rd.",
		"City": "Bellevue",
		"Zip": "33666-739",
		"Region": "WA"
	},
	{
		"AddressID": 86,
		"Street": "8467 Diam. St.",
		"City": "Gorinchem",
		"Zip": "86008-456",
		"Region": "Z."
	},
	{
		"AddressID": 87,
		"Street": "415-2978 Donec Ave",
		"City": "Bonnyville",
		"Zip": "1799",
		"Region": "Alberta"
	},
	{
		"AddressID": 88,
		"Street": "527-7588 Magna. St.",
		"City": "Weiz",
		"Zip": "L3 9FU",
		"Region": "Stm"
	},
	{
		"AddressID": 89,
		"Street": "Ap #102-2233 Nascetur St.",
		"City": "Tiltil",
		"Zip": "18952",
		"Region": "Metropolitana de Santiago"
	},
	{
		"AddressID": 90,
		"Street": "Ap #516-5560 Libero. Rd.",
		"City": "Pieve di Cadore",
		"Zip": "50511",
		"Region": "Veneto"
	},
	{
		"AddressID": 91,
		"Street": "3505 Felis. St.",
		"City": "Vienna",
		"Zip": "48022",
		"Region": "Vienna"
	},
	{
		"AddressID": 92,
		"Street": "Ap #521-2940 Donec St.",
		"City": "Lincoln",
		"Zip": "ER1 0IK",
		"Region": "LI"
	},
	{
		"AddressID": 93,
		"Street": "1775 Odio, Ave",
		"City": "Penco",
		"Zip": "43886",
		"Region": "VII"
	},
	{
		"AddressID": 94,
		"Street": "405-6798 Eget Ave",
		"City": "Bridgeport",
		"Zip": "25981",
		"Region": "CT"
	},
	{
		"AddressID": 95,
		"Street": "P.O. Box 518, 4906 Sociis Rd.",
		"City": "Nurdağı",
		"Zip": "34435",
		"Region": "Gaziantep"
	},
	{
		"AddressID": 96,
		"Street": "P.O. Box 618, 4669 Vel Road",
		"City": "Knoxville",
		"Zip": "1761",
		"Region": "Tennessee"
	},
	{
		"AddressID": 97,
		"Street": "Ap #956-1410 Nullam St.",
		"City": "Cambridge Bay",
		"Zip": "04626-960",
		"Region": "Nunavut"
	},
	{
		"AddressID": 98,
		"Street": "242-6920 Nullam Street",
		"City": "Daiano",
		"Zip": "8428",
		"Region": "TAA"
	},
	{
		"AddressID": 99,
		"Street": "Ap #790-1201 Tortor. St.",
		"City": "Izmir",
		"Zip": "7342NC",
		"Region": "İzmir"
	},
	{
		"AddressID": 100,
		"Street": "478-6877 Dolor Street",
		"City": "Gore",
		"Zip": "3649MY",
		"Region": "South Island"
	},
	[
	{
		"AddressID": 101,
		"Street": "9886 Vitae, Road",
		"City": "Signeulx",
		"Zip": "6483",
		"Region": "LX"
	},
	{
		"AddressID": 102,
		"Street": "5284 Fringilla, Rd.",
		"City": "Recogne",
		"Zip": "66181",
		"Region": "LX"
	},
	{
		"AddressID": 103,
		"Street": "5491 Malesuada Rd.",
		"City": "Lo Barnechea",
		"Zip": "21675",
		"Region": "RM"
	},
	{
		"AddressID": 104,
		"Street": "2311 Non Rd.",
		"City": "Toruń",
		"Zip": "75543",
		"Region": "KP"
	},
	{
		"AddressID": 105,
		"Street": "130-4664 Risus. St.",
		"City": "Antofagasta",
		"Zip": "8518",
		"Region": "Antofagasta"
	},
	{
		"AddressID": 106,
		"Street": "207-3578 Amet Rd.",
		"City": "Leke",
		"Zip": "71700",
		"Region": "WV"
	},
	{
		"AddressID": 107,
		"Street": "810-136 Ut, Avenue",
		"City": "C�te-Saint-Luc",
		"Zip": "30919",
		"Region": "QC"
	},
	{
		"AddressID": 108,
		"Street": "691-4230 Nullam Av.",
		"City": "Belfast",
		"Zip": "305201",
		"Region": "U"
	},
	{
		"AddressID": 109,
		"Street": "Ap #945-6936 Luctus Ave",
		"City": "Racine",
		"Zip": "77-487",
		"Region": "Wisconsin"
	},
	{
		"AddressID": 110,
		"Street": "4377 Nullam Rd.",
		"City": "Overland Park",
		"Zip": "41502",
		"Region": "KS"
	},
	{
		"AddressID": 111,
		"Street": "5395 Massa Avenue",
		"City": "Dehradun",
		"Zip": "2817MA",
		"Region": "UT"
	},
	{
		"AddressID": 112,
		"Street": "Ap #366-7984 Integer Road",
		"City": "Mount Gambier",
		"Zip": "20416",
		"Region": "South Australia"
	},
	{
		"AddressID": 113,
		"Street": "Ap #191-610 Vehicula Rd.",
		"City": "Shaki",
		"Zip": "1629",
		"Region": "OY"
	},
	{
		"AddressID": 114,
		"Street": "4350 Dui, Road",
		"City": "Masterton",
		"Zip": "62944",
		"Region": "NI"
	},
	{
		"AddressID": 115,
		"Street": "457-120 Nonummy Av.",
		"City": "Lincoln",
		"Zip": "36475",
		"Region": "Lincolnshire"
	},
	{
		"AddressID": 116,
		"Street": "9587 Erat, Rd.",
		"City": "Lawton",
		"Zip": "55495",
		"Region": "OK"
	},
	{
		"AddressID": 117,
		"Street": "9226 Curabitur Avenue",
		"City": "Augusta",
		"Zip": "5138",
		"Region": "Maine"
	},
	{
		"AddressID": 118,
		"Street": "P.O. Box 529, 6428 Proin Rd.",
		"City": "Salice Salentino",
		"Zip": "24204",
		"Region": "Puglia"
	},
	{
		"AddressID": 119,
		"Street": "6738 Eleifend. Rd.",
		"City": "Istanbul",
		"Zip": "8794",
		"Region": "Istanbul"
	},
	{
		"AddressID": 120,
		"Street": "225-3752 Sagittis St.",
		"City": "Speyer",
		"Zip": "56654",
		"Region": "RP"
	},
	{
		"AddressID": 121,
		"Street": "Ap #456-3209 Mauris Street",
		"City": "Montreuil",
		"Zip": "94981",
		"Region": "Île-de-France"
	},
	{
		"AddressID": 122,
		"Street": "542-9873 Penatibus Rd.",
		"City": "Vienna",
		"Zip": "50512",
		"Region": "Wie"
	},
	{
		"AddressID": 123,
		"Street": "P.O. Box 765, 233 Fusce Rd.",
		"City": "Harderwijk",
		"Zip": "20003",
		"Region": "Gl"
	},
	{
		"AddressID": 124,
		"Street": "6508 Tincidunt Road",
		"City": "Vorst",
		"Zip": "92442",
		"Region": "Brussels Hoofdstedelijk Gewest"
	},
	{
		"AddressID": 125,
		"Street": "319-5964 Malesuada St.",
		"City": "Belfast",
		"Zip": "50707",
		"Region": "U"
	},
	{
		"AddressID": 126,
		"Street": "P.O. Box 302, 5556 Tellus St.",
		"City": "Murcia",
		"Zip": "593525",
		"Region": "Murcia"
	},
	{
		"AddressID": 127,
		"Street": "P.O. Box 772, 2925 Faucibus Rd.",
		"City": "Doetinchem",
		"Zip": "49249",
		"Region": "Gelderland"
	},
	{
		"AddressID": 128,
		"Street": "8398 Tristique Av.",
		"City": "Purnea",
		"Zip": "520320",
		"Region": "JH"
	},
	{
		"AddressID": 129,
		"Street": "Ap #229-4146 Sed Avenue",
		"City": "Guadalupe",
		"Zip": "2181ZH",
		"Region": "San José"
	},
	{
		"AddressID": 130,
		"Street": "330-3882 Vestibulum Street",
		"City": "Stornaway",
		"Zip": "73665",
		"Region": "Ross-shire"
	},
	{
		"AddressID": 131,
		"Street": "Ap #851-6590 Quisque Av.",
		"City": "Curitiba",
		"Zip": "13283",
		"Region": "PR"
	},
	{
		"AddressID": 132,
		"Street": "216-8739 Nibh. Avenue",
		"City": "St. Clears",
		"Zip": "876614",
		"Region": "Carmarthenshire"
	},
	{
		"AddressID": 133,
		"Street": "978-307 Ipsum Avenue",
		"City": "Betim",
		"Zip": "71972",
		"Region": "MG"
	},
	{
		"AddressID": 134,
		"Street": "Ap #447-3918 Nec Avenue",
		"City": "Łomża",
		"Zip": "8583",
		"Region": "PD"
	},
	{
		"AddressID": 135,
		"Street": "P.O. Box 386, 5591 Purus. St.",
		"City": "Villafranca in Lunigiana",
		"Zip": "984840",
		"Region": "Toscana"
	},
	{
		"AddressID": 136,
		"Street": "Ap #841-7791 Quisque Avenue",
		"City": "Hamburg",
		"Zip": "83912",
		"Region": "Hamburg"
	},
	{
		"AddressID": 137,
		"Street": "6007 Vestibulum St.",
		"City": "Fort Collins",
		"Zip": "256169",
		"Region": "Colorado"
	},
	{
		"AddressID": 138,
		"Street": "3135 Donec Street",
		"City": "Quesada",
		"Zip": "1347",
		"Region": "A"
	},
	{
		"AddressID": 139,
		"Street": "5181 Nulla Rd.",
		"City": "Oosterhout",
		"Zip": "2508",
		"Region": "Noord Brabant"
	},
	{
		"AddressID": 140,
		"Street": "505-6115 Erat Av.",
		"City": "Novoli",
		"Zip": "74599",
		"Region": "Puglia"
	},
	{
		"AddressID": 141,
		"Street": "Ap #612-6302 Vel Avenue",
		"City": "Thorold",
		"Zip": "77-329",
		"Region": "Ontario"
	},
	{
		"AddressID": 142,
		"Street": "242-5613 Metus. St.",
		"City": "Algeciras",
		"Zip": "86366",
		"Region": "AN"
	},
	{
		"AddressID": 143,
		"Street": "Ap #461-2118 Turpis Av.",
		"City": "Okene",
		"Zip": "3594",
		"Region": "KO"
	},
	{
		"AddressID": 144,
		"Street": "9979 Malesuada Rd.",
		"City": "Lachine",
		"Zip": "898885",
		"Region": "QC"
	},
	{
		"AddressID": 145,
		"Street": "225-4392 Augue Road",
		"City": "Zaanstad",
		"Zip": "9502",
		"Region": "Noord Holland"
	},
	{
		"AddressID": 146,
		"Street": "680-5969 Sem Avenue",
		"City": "Cartagena",
		"Zip": "661234",
		"Region": "MU"
	},
	{
		"AddressID": 147,
		"Street": "P.O. Box 429, 196 Id St.",
		"City": "Galway",
		"Zip": "11019",
		"Region": "C"
	},
	{
		"AddressID": 148,
		"Street": "P.O. Box 232, 119 Felis Street",
		"City": "Stony Plain",
		"Zip": "65570",
		"Region": "AB"
	},
	{
		"AddressID": 149,
		"Street": "1778 Nisl. St.",
		"City": "Neyveli",
		"Zip": "3847",
		"Region": "Tamil Nadu"
	},
	{
		"AddressID": 150,
		"Street": "Ap #525-8989 Purus Avenue",
		"City": "West Jordan",
		"Zip": "388168",
		"Region": "Utah"
	},
	{
		"AddressID": 151,
		"Street": "P.O. Box 705, 1524 Nullam Road",
		"City": "La Cruz",
		"Zip": "34846-628",
		"Region": "Valparaíso"
	},
	{
		"AddressID": 152,
		"Street": "364-6338 Risus. Avenue",
		"City": "Pudukkottai",
		"Zip": "K4T 4S7",
		"Region": "Tamil Nadu"
	},
	{
		"AddressID": 153,
		"Street": "P.O. Box 307, 1466 Facilisi. Rd.",
		"City": "Nicoya",
		"Zip": "8001",
		"Region": "Guanacaste"
	},
	{
		"AddressID": 154,
		"Street": "P.O. Box 517, 2094 Nec Road",
		"City": "Almería",
		"Zip": "F40 2JP",
		"Region": "AN"
	},
	{
		"AddressID": 155,
		"Street": "5355 Elementum St.",
		"City": "Värnamo",
		"Zip": "20012",
		"Region": "F"
	},
	{
		"AddressID": 156,
		"Street": "Ap #493-791 Enim Ave",
		"City": "Cabo de Santo Agostinho",
		"Zip": "1211",
		"Region": "PE"
	},
	{
		"AddressID": 157,
		"Street": "9218 Blandit Rd.",
		"City": "Créteil",
		"Zip": "51216",
		"Region": "IL"
	},
	{
		"AddressID": 158,
		"Street": "8971 Nec, St.",
		"City": "Łódź",
		"Zip": "47121-915",
		"Region": "łódzkie"
	},
	{
		"AddressID": 159,
		"Street": "2101 Proin Rd.",
		"City": "Jamnagar",
		"Zip": "70212",
		"Region": "GJ"
	},
	{
		"AddressID": 160,
		"Street": "Ap #359-320 Nunc Ave",
		"City": "Ijebu Ode",
		"Zip": "551419",
		"Region": "Ogun"
	},
	{
		"AddressID": 161,
		"Street": "Ap #903-7188 Ultrices Avenue",
		"City": "Vienna",
		"Zip": "14631",
		"Region": "Vienna"
	},
	{
		"AddressID": 162,
		"Street": "Ap #612-2101 Non Rd.",
		"City": "Rocourt",
		"Zip": "6211",
		"Region": "Luik"
	},
	{
		"AddressID": 163,
		"Street": "P.O. Box 744, 2615 Ac St.",
		"City": "Dehradun",
		"Zip": "08246",
		"Region": "UT"
	},
	{
		"AddressID": 164,
		"Street": "630-8460 Donec Road",
		"City": "Rio de Janeiro",
		"Zip": "23180-052",
		"Region": "RJ"
	},
	{
		"AddressID": 165,
		"Street": "Ap #937-5650 Sapien Av.",
		"City": "Issy-les-Moulineaux",
		"Zip": "10732",
		"Region": "IL"
	},
	{
		"AddressID": 166,
		"Street": "Ap #579-8583 Arcu. Ave",
		"City": "Northumberland",
		"Zip": "5186VR",
		"Region": "Ontario"
	},
	{
		"AddressID": 167,
		"Street": "P.O. Box 297, 6531 Tincidunt St.",
		"City": "Alajuela",
		"Zip": "57705",
		"Region": "A"
	},
	{
		"AddressID": 168,
		"Street": "Ap #902-6331 Ornare St.",
		"City": "Gore",
		"Zip": "31310",
		"Region": "South Island"
	},
	{
		"AddressID": 169,
		"Street": "P.O. Box 267, 2282 Aliquam St.",
		"City": "Belgaum",
		"Zip": "540883",
		"Region": "Karnataka"
	},
	{
		"AddressID": 170,
		"Street": "5404 Cursus Avenue",
		"City": "San Pablo",
		"Zip": "60003",
		"Region": "Heredia"
	},
	{
		"AddressID": 171,
		"Street": "Ap #637-5833 Feugiat Avenue",
		"City": "Lagos",
		"Zip": "37-581",
		"Region": "LA"
	},
	{
		"AddressID": 172,
		"Street": "467 Et, Avenue",
		"City": "Heidenheim",
		"Zip": "0847RL",
		"Region": "Baden"
	},
	{
		"AddressID": 173,
		"Street": "861-427 Lorem Rd.",
		"City": "Wilmont",
		"Zip": "21952-061",
		"Region": "ON"
	},
	{
		"AddressID": 174,
		"Street": "P.O. Box 553, 9856 Bibendum. Street",
		"City": "Onitsha",
		"Zip": "85269",
		"Region": "Anambra"
	},
	{
		"AddressID": 175,
		"Street": "3867 Est. Avenue",
		"City": "Messancy",
		"Zip": "86589",
		"Region": "Luxemburg"
	},
	{
		"AddressID": 176,
		"Street": "Ap #704-3056 Et Street",
		"City": "Lower Hutt",
		"Zip": "7004",
		"Region": "NI"
	},
	{
		"AddressID": 177,
		"Street": "4240 Donec Ave",
		"City": "Foz do Iguaçu",
		"Zip": "008963",
		"Region": "Paraná"
	},
	{
		"AddressID": 178,
		"Street": "P.O. Box 869, 4348 Fusce St.",
		"City": "Veere",
		"Zip": "99775",
		"Region": "Zl"
	},
	{
		"AddressID": 179,
		"Street": "Ap #362-3695 Cursus Rd.",
		"City": "Bhuj",
		"Zip": "K5P 9Z8",
		"Region": "GJ"
	},
	{
		"AddressID": 180,
		"Street": "Ap #542-2839 Sem Ave",
		"City": "Pitt Meadows",
		"Zip": "2963",
		"Region": "BC"
	},
	{
		"AddressID": 181,
		"Street": "P.O. Box 522, 5522 Non Street",
		"City": "L'Hospitalet de Llobregat",
		"Zip": "03071",
		"Region": "CA"
	},
	{
		"AddressID": 182,
		"Street": "4148 Velit Ave",
		"City": "Pointe-Claire",
		"Zip": "EU34 2OO",
		"Region": "QC"
	},
	{
		"AddressID": 183,
		"Street": "Ap #377-6163 Convallis St.",
		"City": "Cerro Navia",
		"Zip": "39047",
		"Region": "Metropolitana de Santiago"
	},
	{
		"AddressID": 184,
		"Street": "Ap #731-9524 Rutrum Road",
		"City": "Täby",
		"Zip": "8112",
		"Region": "AB"
	},
	{
		"AddressID": 185,
		"Street": "905-7121 Rutrum St.",
		"City": "Warszawa",
		"Zip": "R91 6YA",
		"Region": "Mazowieckie"
	},
	{
		"AddressID": 186,
		"Street": "542-4000 Mattis Avenue",
		"City": "Tumbler Ridge",
		"Zip": "7058PU",
		"Region": "British Columbia"
	},
	{
		"AddressID": 187,
		"Street": "Ap #437-6465 Id Avenue",
		"City": "Gorzów Wielkopolski",
		"Zip": "56525-749",
		"Region": "Lubuskie"
	},
	{
		"AddressID": 188,
		"Street": "681 Et St.",
		"City": "LiŽge",
		"Zip": "AS5R 7YE",
		"Region": "LU"
	},
	{
		"AddressID": 189,
		"Street": "1592 Consequat Ave",
		"City": "Witney",
		"Zip": "41208",
		"Region": "Oxfordshire"
	},
	{
		"AddressID": 190,
		"Street": "129-7048 Elit Avenue",
		"City": "Lasnigo",
		"Zip": "7422QU",
		"Region": "Lombardia"
	},
	{
		"AddressID": 191,
		"Street": "Ap #628-8529 Metus. Avenue",
		"City": "Salem",
		"Zip": "905149",
		"Region": "OR"
	},
	{
		"AddressID": 192,
		"Street": "P.O. Box 532, 2497 A, St.",
		"City": "Renfrew",
		"Zip": "67168-545",
		"Region": "Ontario"
	},
	{
		"AddressID": 193,
		"Street": "8018 Eget Road",
		"City": "Bordeaux",
		"Zip": "40710-480",
		"Region": "Aquitaine"
	},
	{
		"AddressID": 194,
		"Street": "Ap #314-4653 Cursus St.",
		"City": "Pilibhit",
		"Zip": "7825",
		"Region": "Uttar Pradesh"
	},
	{
		"AddressID": 195,
		"Street": "1522 Imperdiet Rd.",
		"City": "Istanbul",
		"Zip": "V3Z 8UQ",
		"Region": "Ist"
	},
	{
		"AddressID": 196,
		"Street": "8969 Est Street",
		"City": "Rockford",
		"Zip": "61168",
		"Region": "IL"
	},
	{
		"AddressID": 197,
		"Street": "P.O. Box 198, 9991 Ut, Av.",
		"City": "Sapele",
		"Zip": "3682",
		"Region": "Delta"
	},
	{
		"AddressID": 198,
		"Street": "163-357 Ligula. Street",
		"City": "Vienna",
		"Zip": "L62 4VZ",
		"Region": "Vienna"
	},
	{
		"AddressID": 199,
		"Street": "Ap #104-9426 Convallis Rd.",
		"City": "Deventer",
		"Zip": "2571",
		"Region": "Ov"
	},
		{
			"AddressID": 200,
			"Street": "9649 Lectus Rd.",
			"City": "Strongoli",
			"Zip": "0793YU",
			"Region": "CAL"
		},

{
		"AddressID": 201,
		"Street": "P.O. Box 971, 1625 Id, Ave",
		"City": "Zierikzee",
		"Zip": "17804",
		"Region": "Zeeland"
	},
	{
		"AddressID": 202,
		"Street": "P.O. Box 565, 5947 Rutrum St.",
		"City": "Ravenstein",
		"Zip": "70118",
		"Region": "N."
	},
	{
		"AddressID": 203,
		"Street": "Ap #532-8679 Est St.",
		"City": "Castelló",
		"Zip": "9344IU",
		"Region": "Comunitat Valenciana"
	},
	{
		"AddressID": 204,
		"Street": "Ap #154-8663 Non Av.",
		"City": "Galway",
		"Zip": "B0E 8P6",
		"Region": "Connacht"
	},
	{
		"AddressID": 205,
		"Street": "6760 Orci. Av.",
		"City": "Purral",
		"Zip": "63621",
		"Region": "San José"
	},
	{
		"AddressID": 206,
		"Street": "8210 Vestibulum Street",
		"City": "Serrata",
		"Zip": "828229",
		"Region": "CAL"
	},
	{
		"AddressID": 207,
		"Street": "9960 Vulputate, Rd.",
		"City": "Banda",
		"Zip": "12295",
		"Region": "UP"
	},
	{
		"AddressID": 208,
		"Street": "Ap #916-1174 Erat. Rd.",
		"City": "Osgoode",
		"Zip": "00504",
		"Region": "ON"
	},
	{
		"AddressID": 209,
		"Street": "P.O. Box 854, 572 Congue Avenue",
		"City": "Quintero",
		"Zip": "2481",
		"Region": "V"
	},
	{
		"AddressID": 210,
		"Street": "296-9225 Cursus St.",
		"City": "Dublin",
		"Zip": "E8X 8E6",
		"Region": "Leinster"
	},
	{
		"AddressID": 211,
		"Street": "Ap #282-938 Consectetuer Ave",
		"City": "Newbury",
		"Zip": "BF5 5RT",
		"Region": "BR"
	},
	{
		"AddressID": 212,
		"Street": "4419 Eu Ave",
		"City": "Millport",
		"Zip": "00-714",
		"Region": "Buteshire"
	},
	{
		"AddressID": 213,
		"Street": "941-5557 Arcu. Avenue",
		"City": "Springfield",
		"Zip": "T4X 8H6",
		"Region": "Massachusetts"
	},
	{
		"AddressID": 214,
		"Street": "Ap #582-8858 Eu Road",
		"City": "Nicoya",
		"Zip": "50601",
		"Region": "Guanacaste"
	},
	{
		"AddressID": 215,
		"Street": "2979 Sed Street",
		"City": "Victor Harbor",
		"Zip": "96251",
		"Region": "South Australia"
	},
	{
		"AddressID": 216,
		"Street": "991-5120 Eu, Road",
		"City": "Barcelona",
		"Zip": "N2 0ZB",
		"Region": "Catalunya"
	},
	{
		"AddressID": 217,
		"Street": "P.O. Box 287, 3683 Odio, St.",
		"City": "Saint-Marc",
		"Zip": "125912",
		"Region": "Namen"
	},
	{
		"AddressID": 218,
		"Street": "955-2302 Amet, Rd.",
		"City": "Minto",
		"Zip": "6750",
		"Region": "Ontario"
	},
	{
		"AddressID": 219,
		"Street": "8983 Orci Rd.",
		"City": "Vienna",
		"Zip": "M8V 6P6",
		"Region": "Wie"
	},
	{
		"AddressID": 220,
		"Street": "704-4630 Maecenas Ave",
		"City": "Ulloa (Barrial)",
		"Zip": "3587",
		"Region": "H"
	},
	{
		"AddressID": 221,
		"Street": "326-7979 Felis. St.",
		"City": "Tiruvottiyur",
		"Zip": "240861",
		"Region": "Tamil Nadu"
	},
	{
		"AddressID": 222,
		"Street": "Ap #383-1620 Laoreet Rd.",
		"City": "Mjölby",
		"Zip": "92771",
		"Region": "E"
	},
	{
		"AddressID": 223,
		"Street": "275-2740 Lobortis Road",
		"City": "Tauranga",
		"Zip": "57547",
		"Region": "NI"
	},
	{
		"AddressID": 224,
		"Street": "146-9841 Ut, Rd.",
		"City": "Berlin",
		"Zip": "010145",
		"Region": "Berlin"
	},
	{
		"AddressID": 225,
		"Street": "757-5230 Etiam St.",
		"City": "Patarrá",
		"Zip": "L9E 6C5",
		"Region": "San José"
	},
	{
		"AddressID": 226,
		"Street": "9157 Aliquet, Street",
		"City": "Istanbul",
		"Zip": "63363",
		"Region": "Istanbul"
	},
	{
		"AddressID": 227,
		"Street": "P.O. Box 514, 1520 Rutrum Av.",
		"City": "Betim",
		"Zip": "9650",
		"Region": "MG"
	},
	{
		"AddressID": 228,
		"Street": "809-7431 Vehicula Av.",
		"City": "Ararat",
		"Zip": "50603",
		"Region": "VIC"
	},
	{
		"AddressID": 229,
		"Street": "P.O. Box 818, 2331 Eu Ave",
		"City": "Słupsk",
		"Zip": "885656",
		"Region": "PM"
	},
	{
		"AddressID": 230,
		"Street": "P.O. Box 894, 6799 Semper. Street",
		"City": "Andacollo",
		"Zip": "03428",
		"Region": "IV"
	},
	{
		"AddressID": 231,
		"Street": "8874 Vitae, Rd.",
		"City": "Southampton",
		"Zip": "90596",
		"Region": "Hampshire"
	},
	{
		"AddressID": 232,
		"Street": "P.O. Box 125, 5862 Dui. St.",
		"City": "San Rafael",
		"Zip": "1362",
		"Region": "Alajuela"
	},
	{
		"AddressID": 233,
		"Street": "118-733 Enim. Avenue",
		"City": "Lamont",
		"Zip": "30612",
		"Region": "AB"
	},
	{
		"AddressID": 234,
		"Street": "P.O. Box 671, 7715 Ut, St.",
		"City": "Anzio",
		"Zip": "MA0P 4FD",
		"Region": "Lazio"
	},
	{
		"AddressID": 235,
		"Street": "Ap #921-6515 Purus Rd.",
		"City": "Gold Coast",
		"Zip": "B0Y 6N8",
		"Region": "QLD"
	},
	{
		"AddressID": 236,
		"Street": "493-3086 Feugiat Rd.",
		"City": "Vienna",
		"Zip": "47-553",
		"Region": "Vienna"
	},
	{
		"AddressID": 237,
		"Street": "Ap #499-2475 Ac St.",
		"City": "Akşehir",
		"Zip": "9279",
		"Region": "Kon"
	},
	{
		"AddressID": 238,
		"Street": "935-6311 Sed Rd.",
		"City": "Saint-Georges",
		"Zip": "346240",
		"Region": "Quebec"
	},
	{
		"AddressID": 239,
		"Street": "434 Condimentum St.",
		"City": "Vienna",
		"Zip": "2610",
		"Region": "Wie"
	},
	{
		"AddressID": 240,
		"Street": "861 Vulputate, St.",
		"City": "San Antonio",
		"Zip": "9569",
		"Region": "TX"
	},
	{
		"AddressID": 241,
		"Street": "6673 Mus. Av.",
		"City": "Ipís",
		"Zip": "05313",
		"Region": "SJ"
	},
	{
		"AddressID": 242,
		"Street": "669-3226 Euismod St.",
		"City": "Celle",
		"Zip": "20900",
		"Region": "NI"
	},
	{
		"AddressID": 243,
		"Street": "P.O. Box 675, 5586 Nec St.",
		"City": "Caxias do Sul",
		"Zip": "S83 5UT",
		"Region": "Rio Grande do Sul"
	},
	{
		"AddressID": 244,
		"Street": "Ap #228-1816 Rhoncus. St.",
		"City": "Colwood",
		"Zip": "93141",
		"Region": "British Columbia"
	},
	{
		"AddressID": 245,
		"Street": "7861 Nulla. Rd.",
		"City": "Deventer",
		"Zip": "L8 7RH",
		"Region": "Ov"
	},
	{
		"AddressID": 246,
		"Street": "8436 Pellentesque Avenue",
		"City": "Lansing",
		"Zip": "02-952",
		"Region": "Michigan"
	},
	{
		"AddressID": 247,
		"Street": "107-9093 Duis Street",
		"City": "Samsun",
		"Zip": "285437",
		"Region": "Sam"
	},
	{
		"AddressID": 248,
		"Street": "Ap #672-4793 Aenean Avenue",
		"City": "Torrejón de Ardoz",
		"Zip": "19292",
		"Region": "Madrid"
	},
	{
		"AddressID": 249,
		"Street": "Ap #563-3237 Arcu. Av.",
		"City": "Hamburg",
		"Zip": "947279",
		"Region": "Hamburg"
	},
	{
		"AddressID": 250,
		"Street": "440-529 Viverra. Avenue",
		"City": "Saint Paul",
		"Zip": "4549",
		"Region": "MN"
	},
	{
		"AddressID": 251,
		"Street": "Ap #846-5107 Eu, Ave",
		"City": "Ankara",
		"Zip": "3034",
		"Region": "Ankara"
	},
	{
		"AddressID": 252,
		"Street": "Ap #746-4317 Sed St.",
		"City": "Sant'Egidio del Monte Albino",
		"Zip": "81903",
		"Region": "CAM"
	},
	{
		"AddressID": 253,
		"Street": "Ap #595-3913 Sed Road",
		"City": "Bayswater",
		"Zip": "443099",
		"Region": "Western Australia"
	},
	{
		"AddressID": 254,
		"Street": "8474 Nascetur Ave",
		"City": "Alcobendas",
		"Zip": "28649",
		"Region": "Madrid"
	},
	{
		"AddressID": 255,
		"Street": "525-3131 Fusce Rd.",
		"City": "Hamilton",
		"Zip": "75266",
		"Region": "Ontario"
	},
	{
		"AddressID": 256,
		"Street": "P.O. Box 943, 5770 Interdum St.",
		"City": "La Serena",
		"Zip": "709111",
		"Region": "IV"
	},
	{
		"AddressID": 257,
		"Street": "7563 Arcu. Ave",
		"City": "Elbląg",
		"Zip": "6191",
		"Region": "WM"
	},
	{
		"AddressID": 258,
		"Street": "5664 Interdum. St.",
		"City": "Cincinnati",
		"Zip": "K8R 8X4",
		"Region": "Ohio"
	},
	{
		"AddressID": 259,
		"Street": "P.O. Box 117, 707 Ipsum. Street",
		"City": "Dublin",
		"Zip": "82416",
		"Region": "Leinster"
	},
	{
		"AddressID": 260,
		"Street": "9377 Nulla. Avenue",
		"City": "Malbaie",
		"Zip": "8058",
		"Region": "QC"
	},
	{
		"AddressID": 261,
		"Street": "Ap #994-3505 Eu, Rd.",
		"City": "Borås",
		"Zip": "33844",
		"Region": "O"
	},
	{
		"AddressID": 262,
		"Street": "P.O. Box 754, 7426 Et Street",
		"City": "Picton",
		"Zip": "1358",
		"Region": "SI"
	},
	{
		"AddressID": 263,
		"Street": "Ap #242-739 Nunc, Rd.",
		"City": "María Pinto",
		"Zip": "689314",
		"Region": "Metropolitana de Santiago"
	},
	{
		"AddressID": 264,
		"Street": "794-5526 Quisque Rd.",
		"City": "Södertälje",
		"Zip": "09465-779",
		"Region": "AB"
	},
	{
		"AddressID": 265,
		"Street": "1289 Integer St.",
		"City": "Bangor",
		"Zip": "8234",
		"Region": "ME"
	},
	{
		"AddressID": 266,
		"Street": "112-9053 Vestibulum Road",
		"City": "Levallois-Perret",
		"Zip": "9459",
		"Region": "IL"
	},
	{
		"AddressID": 267,
		"Street": "P.O. Box 288, 1281 Convallis Street",
		"City": "Whyalla",
		"Zip": "191762",
		"Region": "SA"
	},
	{
		"AddressID": 268,
		"Street": "193-9171 Quisque Rd.",
		"City": "Tarragona",
		"Zip": "212264",
		"Region": "CA"
	},
	{
		"AddressID": 269,
		"Street": "6940 Arcu. Ave",
		"City": "Ede",
		"Zip": "30328",
		"Region": "Gl"
	},
	{
		"AddressID": 270,
		"Street": "5783 Ipsum Street",
		"City": "Wałbrzych",
		"Zip": "8845",
		"Region": "DS"
	},
	{
		"AddressID": 271,
		"Street": "5829 In Rd.",
		"City": "Williams Lake",
		"Zip": "61110",
		"Region": "British Columbia"
	},
	{
		"AddressID": 272,
		"Street": "P.O. Box 439, 1351 Mauris Avenue",
		"City": "Dordrecht",
		"Zip": "63912",
		"Region": "Zuid Holland"
	},
	{
		"AddressID": 273,
		"Street": "9009 Erat Av.",
		"City": "Hastings",
		"Zip": "705224",
		"Region": "NI"
	},
	{
		"AddressID": 274,
		"Street": "7220 Rhoncus. St.",
		"City": "Calle Larga",
		"Zip": "19665",
		"Region": "Valparaíso"
	},
	{
		"AddressID": 275,
		"Street": "4357 Vivamus Road",
		"City": "Hawera",
		"Zip": "84532",
		"Region": "NI"
	},
	{
		"AddressID": 276,
		"Street": "184-9647 In Rd.",
		"City": "Posina",
		"Zip": "64727",
		"Region": "Veneto"
	},
	{
		"AddressID": 277,
		"Street": "376-2169 Malesuada St.",
		"City": "Berlin",
		"Zip": "56-380",
		"Region": "Berlin"
	},
	{
		"AddressID": 278,
		"Street": "Ap #626-7997 Lacinia Street",
		"City": "Katowice",
		"Zip": "9534",
		"Region": "SL"
	},
	{
		"AddressID": 279,
		"Street": "777-1427 In Rd.",
		"City": "Gravataí",
		"Zip": "1119",
		"Region": "Rio Grande do Sul"
	},
	{
		"AddressID": 280,
		"Street": "P.O. Box 873, 6582 Elit, Rd.",
		"City": "Elx",
		"Zip": "1486",
		"Region": "CV"
	},
	{
		"AddressID": 281,
		"Street": "4309 Et Street",
		"City": "Ogbomosho",
		"Zip": "13708",
		"Region": "Oyo"
	},
	{
		"AddressID": 282,
		"Street": "P.O. Box 934, 8192 Cursus. St.",
		"City": "Vienna",
		"Zip": "24344",
		"Region": "Wie"
	},
	{
		"AddressID": 283,
		"Street": "292-1691 Vestibulum St.",
		"City": "Istanbul",
		"Zip": "852857",
		"Region": "Istanbul"
	},
	{
		"AddressID": 284,
		"Street": "4199 Venenatis Av.",
		"City": "Galway",
		"Zip": "64455",
		"Region": "C"
	},
	{
		"AddressID": 285,
		"Street": "623-9984 Faucibus Ave",
		"City": "Aubervilliers",
		"Zip": "66391-983",
		"Region": "IL"
	},
	{
		"AddressID": 286,
		"Street": "497 Volutpat. St.",
		"City": "Heredia",
		"Zip": "16647",
		"Region": "Heredia"
	},
	{
		"AddressID": 287,
		"Street": "P.O. Box 932, 5684 Vel Street",
		"City": "Brechin",
		"Zip": "289508",
		"Region": "Angus"
	},
	{
		"AddressID": 288,
		"Street": "P.O. Box 809, 7420 Nunc St.",
		"City": "San Cristóbal de la Laguna",
		"Zip": "18672",
		"Region": "Canarias"
	},
	{
		"AddressID": 289,
		"Street": "304 Morbi St.",
		"City": "Uppingham. Cottesmore",
		"Zip": "807258",
		"Region": "RU"
	},
	{
		"AddressID": 290,
		"Street": "2871 Libero Ave",
		"City": "Vienna",
		"Zip": "62024",
		"Region": "Wie"
	},
	{
		"AddressID": 291,
		"Street": "P.O. Box 289, 273 Tincidunt. Avenue",
		"City": "Nashik",
		"Zip": "5141",
		"Region": "MH"
	},
	{
		"AddressID": 292,
		"Street": "968-2661 Luctus. Rd.",
		"City": "Sint-Lambrechts-Woluwe",
		"Zip": "675121",
		"Region": "Brussels Hoofdstedelijk Gewest"
	},
	{
		"AddressID": 293,
		"Street": "476-7240 Massa. St.",
		"City": "Girona",
		"Zip": "7876",
		"Region": "CA"
	},
	{
		"AddressID": 294,
		"Street": "7671 Mauris Av.",
		"City": "La Granja",
		"Zip": "04311",
		"Region": "Metropolitana de Santiago"
	},
	{
		"AddressID": 295,
		"Street": "Ap #705-5691 Donec Rd.",
		"City": "Etobicoke",
		"Zip": "31765",
		"Region": "Ontario"
	},
	{
		"AddressID": 296,
		"Street": "777-1232 Euismod Av.",
		"City": "Bellevue",
		"Zip": "7241",
		"Region": "Nebraska"
	},
	{
		"AddressID": 297,
		"Street": "740-7881 Nisi St.",
		"City": "Ways",
		"Zip": "9889",
		"Region": "WB"
	},
	{
		"AddressID": 298,
		"Street": "P.O. Box 176, 6954 Et Road",
		"City": "Concón",
		"Zip": "35474",
		"Region": "V"
	},
	{
		"AddressID": 299,
		"Street": "P.O. Box 294, 1604 At, Avenue",
		"City": "San Pedro",
		"Zip": "38-230",
		"Region": "RM"
	},
	{
		"AddressID": 300,
		"Street": "Ap #453-6084 Sem. St.",
		"City": "General Lagos",
		"Zip": "C9F 2DE",
		"Region": "Arica y Parinacota"
	}
]
